start=new Date('2023-05-27T00:00:00.000Z').valueOf();
sats=[{"REV_AT_EPOCH":"2397","REF_FRAME":"TEME","SEMIMAJOR_AXIS":"6938.729","ARG_OF_PERICENTER":"266.3289","MEAN_MOTION_DOT":"-0.00053093","FILE":"3917850","MEAN_MOTION_DDOT":"0.0000000000000","PERIAPSIS":"559.640","BSTAR":"-0.00399680000000","MEAN_ELEMENT_THEORY":"SGP4","RA_OF_ASC_NODE":"251.6428","COUNTRY_CODE":"US","DECAY_DATE":null,"EPHEMERIS_TYPE":"0","NORAD_CAT_ID":"54871","MEAN_ANOMALY":"93.7396","INCLINATION":"43.0045","TIME_SYSTEM":"UTC","EPOCH":"2023-05-26T16:26:41.819136","GP_ID":"232589425","OBJECT_NAME":"STARLINK-5397","APOAPSIS":"561.548","ECCENTRICITY":"0.00013750","OBJECT_TYPE":"PAYLOAD","TLE_LINE2":"2 54871  43.0045 251.6428 0001375 266.3289  93.7396 15.02044839 23977","LAUNCH_DATE":"2022-12-28","ELEMENT_SET_NO":"999","CENTER_NAME":"EARTH","TLE_LINE1":"1 54871U 22177BD  23146.68520624 -.00053093  00000-0 -39968-2 0  9992","OBJECT_ID":"2022-177BD","SITE":"AFETR","RCS_SIZE":"LARGE","CLASSIFICATION_TYPE":"U","PERIOD":"95.869","MEAN_MOTION":"15.02044839"},{"FILE":"3917850","MEAN_MOTION_DDOT":"0.0000000000000","SEMIMAJOR_AXIS":"6937.180","REF_FRAME":"TEME","REV_AT_EPOCH":"2398","MEAN_MOTION_DOT":"0.00009328","ARG_OF_PERICENTER":"275.9147","EPHEMERIS_TYPE":"0","DECAY_DATE":null,"NORAD_CAT_ID":"54872","COUNTRY_CODE":"US","RA_OF_ASC_NODE":"251.1866","MEAN_ANOMALY":"84.1488","PERIAPSIS":"557.780","MEAN_ELEMENT_THEORY":"SGP4","BSTAR":"0.00070447000000","ECCENTRICITY":"0.00018230","GP_ID":"232590176","APOAPSIS":"560.309","OBJECT_NAME":"STARLINK-5390","TLE_LINE2":"2 54872  43.0026 251.1866 0001823 275.9147  84.1488 15.02547967 23982","OBJECT_TYPE":"PAYLOAD","INCLINATION":"43.0026","EPOCH":"2023-05-26T17:39:06.381792","TIME_SYSTEM":"UTC","PERIOD":"95.837","CLASSIFICATION_TYPE":"U","RCS_SIZE":"LARGE","MEAN_MOTION":"15.02547967","CENTER_NAME":"EARTH","ELEMENT_SET_NO":"999","LAUNCH_DATE":"2022-12-28","SITE":"AFETR","OBJECT_ID":"2022-177BE","TLE_LINE1":"1 54872U 22177BE  23146.73549053  .00009328  00000-0  70447-3 0  9994"},{"CENTER_NAME":"EARTH","ELEMENT_SET_NO":"999","LAUNCH_DATE":"2022-12-28","SITE":"AFETR","OBJECT_ID":"2022-177BF","TLE_LINE1":"1 54873U 22177BF  23146.73770393 -.00000426  00000-0 -16420-4 0  9992","PERIOD":"95.838","CLASSIFICATION_TYPE":"U","RCS_SIZE":"LARGE","MEAN_MOTION":"15.02542725","INCLINATION":"43.0043","EPOCH":"2023-05-26T17:42:17.619552","TIME_SYSTEM":"UTC","ECCENTRICITY":"0.00015540","OBJECT_NAME":"STARLINK-5091","GP_ID":"232588924","APOAPSIS":"560.139","TLE_LINE2":"2 54873  43.0043 251.1754 0001554 266.0317  94.0348 15.02542725 23981","OBJECT_TYPE":"PAYLOAD","PERIAPSIS":"557.983","MEAN_ELEMENT_THEORY":"SGP4","BSTAR":"-0.00001642000000","EPHEMERIS_TYPE":"0","DECAY_DATE":null,"NORAD_CAT_ID":"54873","RA_OF_ASC_NODE":"251.1754","COUNTRY_CODE":"US","MEAN_ANOMALY":"94.0348","SEMIMAJOR_AXIS":"6937.196","REF_FRAME":"TEME","REV_AT_EPOCH":"2398","MEAN_MOTION_DOT":"-0.00000426","ARG_OF_PERICENTER":"266.0317","FILE":"3917850","MEAN_MOTION_DDOT":"0.0000000000000"},{"COUNTRY_CODE":"US","RA_OF_ASC_NODE":"90.6669","EPHEMERIS_TYPE":"0","DECAY_DATE":null,"NORAD_CAT_ID":"55269","MEAN_ANOMALY":"90.5112","PERIAPSIS":"570.157","BSTAR":"-0.00003148500000","MEAN_ELEMENT_THEORY":"SGP4","FILE":"3917850","MEAN_MOTION_DDOT":"0.0000000000000","REF_FRAME":"TEME","SEMIMAJOR_AXIS":"6950.171","REV_AT_EPOCH":"2061","ARG_OF_PERICENTER":"269.5737","MEAN_MOTION_DOT":"-0.00000469","PERIOD":"96.107","RCS_SIZE":"LARGE","CLASSIFICATION_TYPE":"U","MEAN_MOTION":"14.98336937","CENTER_NAME":"EARTH","ELEMENT_SET_NO":"999","LAUNCH_DATE":"2023-01-19","OBJECT_ID":"2023-010A","SITE":"AFWTR","TLE_LINE1":"1 55269U 23010A   23146.93237399 -.00000469  00000-0 -31485-4 0  9990","ECCENTRICITY":"0.00027040","GP_ID":"232589718","OBJECT_NAME":"STARLINK-5277","APOAPSIS":"573.916","TLE_LINE2":"2 55269  70.0001  90.6669 0002704 269.5737  90.5112 14.98336937 20615","OBJECT_TYPE":"PAYLOAD","INCLINATION":"70.0001","EPOCH":"2023-05-26T22:22:37.112736","TIME_SYSTEM":"UTC"},{"CENTER_NAME":"EARTH","LAUNCH_DATE":"2023-01-19","ELEMENT_SET_NO":"999","SITE":"AFWTR","OBJECT_ID":"2023-010B","TLE_LINE1":"1 55270U 23010B   23146.87813861 -.00000282  00000-0 -15875-4 0  9997","PERIOD":"96.107","CLASSIFICATION_TYPE":"U","RCS_SIZE":"LARGE","MEAN_MOTION":"14.98328193","INCLINATION":"70.0004","EPOCH":"2023-05-26T21:04:31.175904","TIME_SYSTEM":"UTC","ECCENTRICITY":"0.00023250","OBJECT_NAME":"STARLINK-5301","GP_ID":"232588466","APOAPSIS":"573.679","TLE_LINE2":"2 55270  70.0004  90.8792 0002325 270.1417  89.9476 14.98328193 20329","OBJECT_TYPE":"PAYLOAD","PERIAPSIS":"570.448","MEAN_ELEMENT_THEORY":"SGP4","BSTAR":"-0.00001587500000","DECAY_DATE":null,"NORAD_CAT_ID":"55270","EPHEMERIS_TYPE":"0","COUNTRY_CODE":"US","RA_OF_ASC_NODE":"90.8792","MEAN_ANOMALY":"89.9476","SEMIMAJOR_AXIS":"6950.198","REF_FRAME":"TEME","REV_AT_EPOCH":"2032","MEAN_MOTION_DOT":"-0.00000282","ARG_OF_PERICENTER":"270.1417","FILE":"3917850","MEAN_MOTION_DDOT":"0.0000000000000"},{"MEAN_ANOMALY":"92.6991","COUNTRY_CODE":"US","RA_OF_ASC_NODE":"90.8519","NORAD_CAT_ID":"55271","DECAY_DATE":null,"EPHEMERIS_TYPE":"0","BSTAR":"-0.00000138270000","MEAN_ELEMENT_THEORY":"SGP4","PERIAPSIS":"570.211","MEAN_MOTION_DDOT":"0.0000000000000","FILE":"3917850","ARG_OF_PERICENTER":"267.3865","MEAN_MOTION_DOT":"-0.00000109","REV_AT_EPOCH":"2032","REF_FRAME":"TEME","SEMIMAJOR_AXIS":"6950.188","MEAN_MOTION":"14.98331738","RCS_SIZE":"LARGE","CLASSIFICATION_TYPE":"U","PERIOD":"96.107","TLE_LINE1":"1 55271U 23010C   23146.86978809 -.00000109  00000-0 -13827-5 0  9995","OBJECT_ID":"2023-010C","SITE":"AFWTR","ELEMENT_SET_NO":"999","LAUNCH_DATE":"2023-01-19","CENTER_NAME":"EARTH","OBJECT_TYPE":"PAYLOAD","TLE_LINE2":"2 55271  69.9999  90.8519 0002649 267.3865  92.6991 14.98331738 20323","OBJECT_NAME":"STARLINK-5306","GP_ID":"232589217","APOAPSIS":"573.894","ECCENTRICITY":"0.00026490","TIME_SYSTEM":"UTC","EPOCH":"2023-05-26T20:52:29.690976","INCLINATION":"69.9999"},{"MEAN_ELEMENT_THEORY":"SGP4","BSTAR":"-0.00001182800000","PERIAPSIS":"570.102","MEAN_ANOMALY":"90.1747","NORAD_CAT_ID":"55272","DECAY_DATE":null,"EPHEMERIS_TYPE":"0","RA_OF_ASC_NODE":"90.8931","COUNTRY_CODE":"US","MEAN_MOTION_DOT":"-0.00000234","ARG_OF_PERICENTER":"269.9090","SEMIMAJOR_AXIS":"6950.195","REF_FRAME":"TEME","REV_AT_EPOCH":"2032","MEAN_MOTION_DDOT":"0.0000000000000","FILE":"3917850","SITE":"AFWTR","OBJECT_ID":"2023-010D","TLE_LINE1":"1 55272U 23010D   23146.88231130 -.00000234  00000-0 -11828-4 0  9994","CENTER_NAME":"EARTH","ELEMENT_SET_NO":"999","LAUNCH_DATE":"2023-01-19","MEAN_MOTION":"14.98329289","PERIOD":"96.107","CLASSIFICATION_TYPE":"U","RCS_SIZE":"LARGE","EPOCH":"2023-05-26T21:10:31.696320","TIME_SYSTEM":"UTC","INCLINATION":"70.0006","TLE_LINE2":"2 55272  70.0006  90.8931 0002817 269.9090  90.1747 14.98329289 20329","OBJECT_TYPE":"PAYLOAD","ECCENTRICITY":"0.00028170","GP_ID":"232589468","OBJECT_NAME":"STARLINK-5310","APOAPSIS":"574.018"},{"TLE_LINE2":"2 55273  69.9997  90.6533 0002790 267.4258  92.6582 14.98329720 20336","OBJECT_TYPE":"PAYLOAD","ECCENTRICITY":"0.00027900","GP_ID":"232590219","APOAPSIS":"573.998","OBJECT_NAME":"STARLINK-5291","EPOCH":"2023-05-26T22:16:36.521472","TIME_SYSTEM":"UTC","INCLINATION":"69.9997","MEAN_MOTION":"14.98329720","PERIOD":"96.107","RCS_SIZE":"LARGE","CLASSIFICATION_TYPE":"U","OBJECT_ID":"2023-010E","SITE":"AFWTR","TLE_LINE1":"1 55273U 23010E   23146.92820048 -.00000190  00000-0 -81316-5 0  9993","CENTER_NAME":"EARTH","LAUNCH_DATE":"2023-01-19","ELEMENT_SET_NO":"999","MEAN_MOTION_DDOT":"0.0000000000000","FILE":"3917850","ARG_OF_PERICENTER":"267.4258","MEAN_MOTION_DOT":"-0.00000190","REF_FRAME":"TEME","SEMIMAJOR_AXIS":"6950.194","REV_AT_EPOCH":"2033","MEAN_ANOMALY":"92.6582","COUNTRY_CODE":"US","RA_OF_ASC_NODE":"90.6533","NORAD_CAT_ID":"55273","DECAY_DATE":null,"EPHEMERIS_TYPE":"0","BSTAR":"-0.00000813160000","MEAN_ELEMENT_THEORY":"SGP4","PERIAPSIS":"570.120"},{"INCLINATION":"70.0007","EPOCH":"2023-05-26T22:00:01.999584","TIME_SYSTEM":"UTC","ECCENTRICITY":"0.00034500","GP_ID":"232588967","APOAPSIS":"462.690","OBJECT_NAME":"STARLINK-5236","TLE_LINE2":"2 55274  70.0007  72.2268 0003450 269.5964 188.5573 15.35199209  1304","OBJECT_TYPE":"PAYLOAD","CENTER_NAME":"EARTH","ELEMENT_SET_NO":"999","LAUNCH_DATE":"2023-01-19","OBJECT_ID":"2023-010F","SITE":"AFWTR","TLE_LINE1":"1 55274U 23010F   23146.91668981 -.00964317  00000-0 -30811-1 0  9999","PERIOD":"93.799","RCS_SIZE":"LARGE","CLASSIFICATION_TYPE":"U","MEAN_MOTION":"15.35199209","REF_FRAME":"TEME","SEMIMAJOR_AXIS":"6838.466","REV_AT_EPOCH":"130","ARG_OF_PERICENTER":"269.5964","MEAN_MOTION_DOT":"-0.00964317","FILE":"3917850","MEAN_MOTION_DDOT":"0.0000000000000","PERIAPSIS":"457.972","BSTAR":"-0.03081100000000","MEAN_ELEMENT_THEORY":"SGP4","RA_OF_ASC_NODE":"72.2268","COUNTRY_CODE":"US","NORAD_CAT_ID":"55274","DECAY_DATE":null,"EPHEMERIS_TYPE":"0","MEAN_ANOMALY":"188.5573"},{"BSTAR":"-0.03058800000000","MEAN_ELEMENT_THEORY":"SGP4","PERIAPSIS":"457.274","MEAN_ANOMALY":"196.0541","COUNTRY_CODE":"US","RA_OF_ASC_NODE":"72.2187","NORAD_CAT_ID":"55275","DECAY_DATE":null,"EPHEMERIS_TYPE":"0","ARG_OF_PERICENTER":"269.9255","MEAN_MOTION_DOT":"-0.00964656","REV_AT_EPOCH":"130","REF_FRAME":"TEME","SEMIMAJOR_AXIS":"6837.758","MEAN_MOTION_DDOT":"0.0000000000000","FILE":"3917850","TLE_LINE1":"1 55275U 23010G   23146.91668981 -.00964656  00000-0 -30588-1 0  9997","OBJECT_ID":"2023-010G","SITE":"AFWTR","LAUNCH_DATE":"2023-01-19","ELEMENT_SET_NO":"999","CENTER_NAME":"EARTH","MEAN_MOTION":"15.35437660","RCS_SIZE":"LARGE","CLASSIFICATION_TYPE":"U","PERIOD":"93.784","TIME_SYSTEM":"UTC","EPOCH":"2023-05-26T22:00:01.999584","INCLINATION":"70.0008","OBJECT_TYPE":"PAYLOAD","TLE_LINE2":"2 55275  70.0008  72.2187 0003435 269.9255 196.0541 15.35437660  1301","APOAPSIS":"461.972","GP_ID":"232588717","OBJECT_NAME":"STARLINK-5260","ECCENTRICITY":"0.00034350"}];
